{"version": 0.6, "generator": "Overpass API 0.7.57 93a4d346", "osm3s": {"timestamp_osm_base": "2022-01-21T10:47:11Z", "copyright": "The data included in this document is from www.openstreetmap.org. The data is made available under ODbL."}, "elements": [{"type": "node", "id": 250354898, "lat": 53.5571789, "lon": 9.9280119, "tags": {"amenity": "post_box", "brand": "Deutsche Post", "check_date": "2021-07-11", "collection_times": "Mo-Fr 16:45; Sa 12:00", "drive_through": "no", "operator": "Deutsche Post", "ref": "Bahrenfelder Stra\u00dfe 243, 22765 Hamburg"}}, {"type": "node", "id": 267622930, "lat": 53.549477, "lon": 9.9274846, "tags": {"addr:city": "Hamburg", "addr:country": "DE", "addr:housenumber": "38", "addr:postcode": "22765", "addr:street": "Rothestra\u00dfe", "amenity": "restaurant", "cuisine": "ethiopian", "name": "Ethio", "wheelchair": "no"}}, {"type": "node", "id": 267623160, "lat": 53.5475906, "lon": 9.9292942, "tags": {"addr:city": "Hamburg", "addr:country": "DE", "addr:housenumber": "25", "addr:postcode": "22765", "addr:street": "Holl\u00e4ndische Reihe", "amenity": "restaurant", "cuisine": "italian", "name": "Trattoria Toscana", "opening_hours": "Mo-Fr 12:00-15:00; Mo-Sa 18:00-23:30", "website": "http://www.trattoria-toscana.hamburg"}}, {"type": "node", "id": 280702925, "lat": 53.5536802, "lon": 9.9301419, "tags": {"addr:city": "Hamburg", "addr:country": "DE", "addr:housenumber": "24", "addr:postcode": "22765", "addr:street": "Kleine Rainstra\u00dfe", "addr:suburb": "Altona", "amenity": "restaurant", "bettundbike": "yes", "description": "Hotel restaurant, lunch (and breakfast for guests) only", "diet:vegan": "yes", "internet_access": "hamburg.freifunk.net", "name": "Schanzenstern Bio-Restaurant", "opening_hours": "Mo-Fr 12:00-16:00", "organic": "only", "phone": "+49 40 4398441", "toilets:wheelchair": "yes", "tourism": "hotel", "website": "https://www.schanzenstern.com/de/altona/mittagstisch-catering/bio-mittagstisch.html#menu-start", "wheelchair": "yes"}}, {"type": "node", "id": 292829392, "lat": 53.5531751, "lon": 9.9311987, "tags": {"addr:city": "Hamburg", "addr:country": "DE", "addr:housenumber": "23", "addr:postcode": "22765", "addr:street": "Gro\u00dfe Rainstra\u00dfe", "amenity": "restaurant", "name": "Tarifa", "opening_hours": "Mo-Fr 09:00+; Sa-Su 10:00+", "phone": "+49 40 39903529", "website": "http://www.cafe-tarifa.de", "wheelchair": "no"}}, {"type": "node", "id": 344623992, "lat": 53.5464189, "lon": 9.9222532, "tags": {"addr:city": "Hamburg", "addr:country": "DE", "addr:housenumber": "94", "addr:postcode": "22763", "addr:street": "Elbchaussee", "amenity": "restaurant", "cuisine": "italian", "name": "Il Gambero", "opening_hours": "Tu-Fr 12:00-15:00,18:00-23:00;Sa 18:00-23:00;Su 12:00-22:00", "phone": "+49 40 380 79 985", "website": "https://il-gambero.com"}}, {"type": "node", "id": 351360866, "lat": 53.550202, "lon": 9.926919, "tags": {"addr:city": "Hamburg", "addr:country": "DE", "addr:housenumber": "49", "addr:postcode": "22765", "addr:street": "Eulenstra\u00dfe", "amenity": "restaurant", "contact:phone": "+49 40 39907467", "cuisine": "greek", "name": "Nostalgia bei Sotiris", "wheelchair": "limited"}}, {"type": "node", "id": 351521856, "lat": 53.5504244, "lon": 9.9272788, "tags": {"addr:city": "Hamburg", "addr:country": "DE", "addr:housenumber": "38", "addr:postcode": "22765", "addr:street": "Eulenstra\u00dfe", "amenity": "restaurant", "contact:phone": "+49 40 84600904", "contact:website": "https://flying-market.business.site/", "cuisine": "vietnamese", "delivery": "yes", "diet:gluten_free": "yes", "diet:vegan": "yes", "diet:vegetarian": "yes", "name": "Flying Market", "opening_hours": "Mo-Su 12:00-22:30", "reservation": "yes", "takeaway": "yes", "wheelchair": "no"}}, {"type": "node", "id": 351578410, "lat": 53.5520783, "lon": 9.9332358, "tags": {"addr:city": "Hamburg", "addr:country": "DE", "addr:housenumber": "1", "addr:postcode": "22765", "addr:street": "Ottenser Hauptstra\u00dfe", "amenity": "restaurant", "check_date": "2020-10-31", "contact:phone": "+49 40 39903390", "contact:website": "https://www.bokrestaurant.de/standorte", "cuisine": "asian", "name": "BOK", "opening_hours": "11:30-22:00", "wheelchair": "yes"}}, {"type": "node", "id": 353310110, "lat": 53.5591667, "lon": 9.9249321, "tags": {"addr:city": "Hamburg", "addr:housenumber": "190", "addr:postcode": "22765", "addr:street": "Gau\u00dfstra\u00dfe", "amenity": "restaurant", "cuisine": "pizza", "name": "Farina", "phone": "+491628663600", "website": "https://www.farina.pizza/", "wheelchair": "yes"}}, {"type": "node", "id": 355242188, "lat": 53.549683, "lon": 9.9303866, "tags": {"addr:city": "Hamburg", "addr:country": "DE", "addr:housenumber": "2", "addr:postcode": "22765", "addr:street": "Arnoldstra\u00dfe", "amenity": "restaurant", "check_date": "2020-07-05", "contact:phone": "+49 40 333101", "contact:website": "https://www.eljardinhamburg.com/", "cuisine": "spanish", "name": "El Jard\u00edn", "opening_hours": "Tu-Sa 17:00-22:00", "outdoor_seating": "no", "smoking": "no", "wheelchair": "yes"}}, {"type": "node", "id": 355602130, "lat": 53.5568042, "lon": 9.9214916, "tags": {"amenity": "restaurant", "contact:phone": "+49 40 88177878", "contact:website": "http://www.froindlichst.com/", "diet:vegan": "only", "diet:vegetarian": "yes", "name": "Froindlichst", "opening_hours": "Mo-Th 12:00-22:00; Fr 12:00-23:00; Sa 09:30-23:00; Su 10:00-22:00", "website": "http://www.froindlichst.com", "wheelchair": "limited", "wheelchair:description": "Behinderten-WC eng aber benutzbar"}}, {"type": "node", "id": 482150317, "lat": 53.5514623, "lon": 9.9309799, "tags": {"addr:city": "Hamburg", "addr:country": "DE", "addr:housenumber": "12", "addr:postcode": "22765", "addr:street": "Spritzenplatz", "amenity": "restaurant", "name": "Cosmos", "phone": "+49 40 39806333", "website": "http://www.cosmos-ristorante.de", "wheelchair": "no", "wheelchair:description": "ca. 12-15 cm Stufe am Eingang"}}, {"type": "node", "id": 482150318, "lat": 53.5517299, "lon": 9.9305686, "tags": {"addr:city": "Hamburg", "addr:country": "DE", "addr:housenumber": "18", "addr:street": "Spritzenplatz", "amenity": "restaurant", "cuisine": "greek", "name": "Kypros", "phone": "+49 40 3902350", "website": "https://www.restaurantkypros.de/", "wheelchair": "limited"}}, {"type": "node", "id": 636058221, "lat": 53.5519471, "lon": 9.9332385, "tags": {"amenity": "restaurant", "branch": "Ottensen", "brand": "Schweinske", "brand:wikidata": "Q110482774", "cuisine": "burger;escalope;german", "level": "0.5", "name": "Schweinske Ottensen", "opening_hours": "Mo-Su 09:00-22:00", "opening_hours:kitchen": "Fr,Sa 09:00-23:30; Su-Th 09:00-22:30", "operator": "KGF UG (haftungsbeschr\u00e4nkt)", "outdoor_seating": "yes", "payment:cash": "yes", "phone": "+49 40 31182285", "reservation": "yes", "smoking": "outside", "toilets:wheelchair": "yes", "website": "https://schweinske.de/standorte/ottensen", "website:menu": "https://schweinske.de/speisekarte", "wheelchair": "yes", "wheelchair:description": "Treppenlift am Nebeneingang mit Euro WC Schl\u00fcssel zu bedienen. Eigenes Rollstuhl gerechtes WC vorhanden."}}, {"type": "node", "id": 663428631, "lat": 53.5436528, "lon": 9.9146286, "tags": {"amenity": "restaurant", "name": "D.E.S. Bergedorf", "operator": "Museumshafen Cafe GmbH", "smoking": "isolated", "website": "http://museumshafencafe.de/", "wheelchair": "limited"}}, {"type": "node", "id": 739423994, "lat": 53.5508084, "lon": 9.9271486, "tags": {"addr:city": "Hamburg", "addr:country": "DE", "addr:housenumber": "1", "addr:postcode": "22765", "addr:street": "Kleine Brunnenstra\u00dfe", "amenity": "restaurant", "name": "Kleine Brunnenstra\u00dfe 1", "opening_hours": "Tu-Sa 17:30-22:00", "phone": "+49 40 39907772", "website": "http://kleine-brunnenstrasse.de", "wheelchair": "no"}}, {"type": "node", "id": 896984224, "lat": 53.5543826, "lon": 9.9270487, "tags": {"addr:city": "Hamburg", "addr:country": "DE", "addr:housenumber": "9", "addr:postcode": "22765", "addr:street": "Friedensallee", "amenity": "restaurant", "name": "Eisenstein", "opening_hours": "11:00-01:00", "phone": "+49 40 3904606", "toilets:wheelchair": "no", "website": "https://www.restaurant-eisenstein.de/", "wheelchair": "limited"}}, {"type": "node", "id": 897042706, "lat": 53.5506701, "lon": 9.9252957, "tags": {"addr:city": "Hamburg", "addr:country": "DE", "addr:housenumber": "77", "addr:postcode": "22763", "addr:street": "Eulenstra\u00dfe", "amenity": "restaurant", "cuisine": "german", "name": "Hatari", "opening_hours": "Mo-Sa 18:00-24:00; Su 17:00-24:00", "phone": "+49 40 399 090 50", "website": "https://hataripfaelzerstube.com/", "wheelchair": "limited"}}, {"type": "node", "id": 990127250, "lat": 53.5507932, "lon": 9.9302802, "tags": {"addr:city": "Hamburg", "addr:housenumber": "86", "addr:postcode": "22765", "addr:street": "Bahrenfelder Stra\u00dfe", "amenity": "restaurant", "contact:website": "https://lunasel.eatbu.com", "name": "Luna Sel", "opening_hours": "Tu-Sa 16:00-23:00", "phone": "+49 40 38634061", "wheelchair": "limited"}}, {"type": "node", "id": 990145642, "lat": 53.5516628, "lon": 9.9274294, "tags": {"addr:city": "Hamburg", "addr:country": "DE", "addr:housenumber": "70", "addr:postcode": "22765", "addr:street": "Rothestra\u00dfe", "amenity": "restaurant", "contact:phone": "+49 40 39909878", "contact:website": "http://www.goldene-gans.eu/", "name": "Goldene Gans", "opening_hours": "Mo-Fr 11:30-15:30, 18:00-24:00; Sa-Su 09:30-15:00, 18:00-24:00", "outdoor_seating": "yes", "website": "http://www.goldene-gans.eu/", "wheelchair": "no"}}, {"type": "node", "id": 1077489885, "lat": 53.5554128, "lon": 9.9264559, "tags": {"addr:city": "Hamburg", "addr:country": "DE", "addr:housenumber": "34a", "addr:postcode": "22765", "addr:street": "Friedensallee", "amenity": "restaurant", "cuisine": "spanish", "diet:vegetarian": "yes", "name": "El Iberico", "opening_hours": "PH,Mo-Su 17:00-24:00+", "wheelchair": "no"}}, {"type": "node", "id": 1078561415, "lat": 53.5476097, "lon": 9.928868, "tags": {"addr:city": "Hamburg", "addr:country": "DE", "addr:housenumber": "21", "addr:postcode": "22765", "addr:street": "Rothestra\u00dfe", "amenity": "restaurant", "cuisine": "greek", "name": "Olympos", "opening_hours": "Tu-Sa 17:00-23:00; Su 12:00-23:00", "phone": "+49 40 396586", "website": "http://www.restaurant-olympos.com/"}}, {"type": "node", "id": 1078576284, "lat": 53.5504024, "lon": 9.9270068, "tags": {"addr:city": "Hamburg", "addr:country": "DE", "addr:housenumber": "42", "addr:postcode": "22765", "addr:street": "Eulenstra\u00dfe", "amenity": "restaurant", "check_date": "2020-07-05", "contact:phone": "+49 40 30603407", "contact:website": "http://www.brasserielaprovence.de", "cuisine": "french", "name": "Brasserie La Provence", "opening_hours": "Tu-Sa 18:00+", "wheelchair": "no"}}, {"type": "node", "id": 1078590705, "lat": 53.5520608, "lon": 9.929125, "tags": {"amenity": "restaurant", "cuisine": "chinese", "name": "Han Kong", "wheelchair": "no"}}, {"type": "node", "id": 1162424649, "lat": 53.5482344, "lon": 9.9230375, "tags": {"amenity": "restaurant", "cuisine": "sandwich", "diet:vegan": "yes", "name": "HACO Greenhouse", "opening_hours": "We-Sa 17:00-23:00", "wheelchair": "no"}}, {"type": "node", "id": 1329380539, "lat": 53.5564751, "lon": 9.9280577, "tags": {"addr:city": "Hamburg", "addr:housenumber": "221", "addr:postcode": "22765", "addr:street": "Bahrenfelder Stra\u00dfe", "amenity": "restaurant", "cuisine": "barbecue", "diet:vegetarian": "yes", "name": "Brooklyn BBQ Bar", "opening_hours": "Mo-Th 18:00-24:00, Fr,Sa 18:00+;Su 16:00-23:00", "phone": "+49 40 60792430", "website": "http://brooklynbbqbar.de", "wheelchair": "yes"}}, {"type": "node", "id": 1342652460, "lat": 53.5539914, "lon": 9.9288955, "tags": {"amenity": "restaurant", "cuisine": "italian;noodle;pizza", "delivery": "yes", "email": "restaurantpiazza@web.de", "name": "Piazza Italiana", "opening_hours": "Su-Th 11:00-24:00, Fr,Sa 11:00+", "outdoor_seating": "yes", "payment:american_express": "yes", "payment:cash": "yes", "payment:cryptocurrencies": "no", "payment:electronic_purses": "no", "payment:girocard": "yes", "payment:maestro": "yes", "payment:mastercard": "yes", "payment:visa": "yes", "phone": "+49 40 39909366", "reservation": "yes", "takeaway": "yes", "toilets": "yes", "toilets:access": "customers", "website": "https://www.restaurantpiazzaitaliana.de", "wheelchair": "limited"}}, {"type": "node", "id": 1346163695, "lat": 53.5508963, "lon": 9.9303039, "tags": {"addr:city": "Hamburg", "addr:country": "DE", "addr:housenumber": "88", "addr:postcode": "22765", "addr:street": "Bahrenfelder Stra\u00dfe", "amenity": "restaurant", "contact:phone": "+49 40 39909277", "contact:website": "https://restaurantelbfisch.eatbu.com", "name": "Elbfisch", "opening_hours": "Mo-Sa 12:00-22:00; Su 15:00-22:00", "wheelchair": "limited"}}, {"type": "node", "id": 1357756659, "lat": 53.5543343, "lon": 9.9288115, "tags": {"addr:city": "Hamburg", "addr:country": "DE", "addr:housenumber": "170", "addr:postcode": "22765", "addr:street": "Bahrenfelder Stra\u00dfe", "amenity": "restaurant", "contact:phone": "+49 40 399 07 113", "cuisine": "asian", "name": "Wild Rice", "outdoor_seating": "yes", "smoking": "no", "wheelchair": "yes"}}, {"type": "node", "id": 1574464372, "lat": 53.5543619, "lon": 9.9284589, "tags": {"amenity": "restaurant", "contact:phone": "+49 40 41280246", "cuisine": "indian", "delivery": "yes", "name": "Balutschistan", "opening_hours": "Mo-Su 12:00-23:30", "wheelchair": "no"}}, {"type": "node", "id": 1580788010, "lat": 53.5509345, "lon": 9.9122158, "tags": {"addr:city": "Hamburg", "addr:country": "DE", "addr:housenumber": "43-45", "addr:postcode": "22763", "addr:street": "Bleickenallee", "amenity": "restaurant", "cuisine": "italian", "name": "Ristorante Vito", "opening_hours": "Mo-Su 12:00-24:00", "outdoor_seating": "yes", "phone": "+49 40 8800746", "wheelchair": "limited", "wheelchair:description": "Eine Stufe am Eingang, Toiletten ebenderdig"}}, {"type": "node", "id": 1719420560, "lat": 53.55009, "lon": 9.933, "tags": {"addr:city": "Hamburg", "addr:country": "DE", "addr:housenumber": "24", "addr:postcode": "22765", "addr:street": "Lobuschstra\u00dfe", "amenity": "restaurant", "cuisine": "italian", "internet_access": "no", "name": "Trattoria Roma Sparita", "outdoor_seating": "no", "smoking": "no", "takeaway": "yes", "wheelchair": "no"}}, {"type": "node", "id": 1808083445, "lat": 53.5576966, "lon": 9.9143526}, {"type": "node", "id": 1808083470, "lat": 53.557717, "lon": 9.9141911}, {"type": "node", "id": 1808083499, "lat": 53.5577778, "lon": 9.9142134}, {"type": "node", "id": 1808083520, "lat": 53.5578224, "lon": 9.9143961}, {"type": "node", "id": 1808083639, "lat": 53.5579092, "lon": 9.9142243}, {"type": "node", "id": 1931973729, "lat": 53.5559526, "lon": 9.9282078, "tags": {"addr:city": "Hamburg", "addr:country": "DE", "addr:housenumber": "211", "addr:postcode": "22765", "addr:street": "Bahrenfelder Stra\u00dfe", "amenity": "restaurant", "cuisine": "vietnamese", "name": "Cooko", "opening_hours": "Mo-Su 12:00-23:00", "wheelchair": "yes"}}, {"type": "node", "id": 2063956917, "lat": 53.5577865, "lon": 9.9141955}, {"type": "node", "id": 2063956922, "lat": 53.5578015, "lon": 9.9141967}, {"type": "node", "id": 2063956928, "lat": 53.5578381, "lon": 9.9141274}, {"type": "node", "id": 2135142108, "lat": 53.5553669, "lon": 9.9103988, "tags": {"amenity": "restaurant", "name": "Achtzehn93", "opening_hours": "Mo,We,Fr,Sa,Su 18:00-24:00", "wheelchair": "no"}}, {"type": "node", "id": 2148881572, "lat": 53.5490231, "lon": 9.9253163, "tags": {"amenity": "restaurant", "contact:phone": "+49 40 3902617", "contact:website": "http://www.dionysos-ottensen.de/", "cuisine": "greek", "diet:vegetarian": "yes", "name": "Dionysos", "opening_hours": "PH,We-Mo 16:00-24:00"}}, {"type": "node", "id": 2148881592, "lat": 53.549923, "lon": 9.9250729, "tags": {"addr:city": "Hamburg", "addr:country": "DE", "addr:housenumber": "41", "addr:postcode": "22763", "addr:street": "Gro\u00dfe Brunnenstra\u00dfe", "amenity": "restaurant", "cuisine": "italian", "name": "il Locale", "opening_hours": "Tu-Fr 17:00-22:00; Sa, Su 16:00-22:00", "phone": "+49 40 39893689", "website": "http://www.il-locale.de/", "wheelchair": "no"}}, {"type": "node", "id": 2148881594, "lat": 53.5500691, "lon": 9.9250475, "tags": {"addr:city": "Hamburg", "addr:country": "DE", "addr:housenumber": "17a", "addr:postcode": "22763", "addr:street": "Keplerstra\u00dfe", "amenity": "restaurant", "name": "Karls", "opening_hours": "Tu-Sa 17:00-22:00", "wheelchair": "no"}}, {"type": "node", "id": 2418110755, "lat": 53.5571735, "lon": 9.9280107}, {"type": "node", "id": 2418110756, "lat": 53.5571765, "lon": 9.9278627}, {"type": "node", "id": 2418110757, "lat": 53.5572958, "lon": 9.9280376}, {"type": "node", "id": 2418110758, "lat": 53.5572963, "lon": 9.9279014}, {"type": "node", "id": 2433571122, "lat": 53.5593711, "lon": 9.913214, "tags": {"addr:city": "Hamburg", "addr:housenumber": "126", "addr:postcode": "22763", "addr:street": "Griegstra\u00dfe", "amenity": "restaurant", "cuisine": "pizza", "name": "Manhattan Pizza-Service", "opening_hours": "Tu-Fr 16:00-04:00, Sa 16:00-04:00, PH,Su 16:00-03:00; Mo off", "phone": "+49 40 8803035", "wheelchair": "no"}}, {"type": "node", "id": 2469239221, "lat": 53.5560683, "lon": 9.92784, "tags": {"amenity": "restaurant", "cuisine": "greek", "name": "Sotiris", "opening_hours:signed": "no", "wheelchair": "no"}}, {"type": "node", "id": 2490900022, "lat": 53.5557797, "lon": 9.9218921, "tags": {"addr:city": "Hamburg", "addr:housenumber": "57", "addr:postcode": "22765", "addr:street": "Friedensallee", "amenity": "restaurant", "cuisine": "greek", "name": "Taverna Elia", "opening_hours": "Tu-Sa 17:00-23:45; Su 12:00-23:00", "toilets:wheelchair": "no", "website": "http://www.tavernaelia.de/", "wheelchair": "no"}}, {"type": "node", "id": 2736146008, "lat": 53.5531412, "lon": 9.9227298, "tags": {"addr:city": "Hamburg", "addr:country": "DE", "addr:housenumber": "105-107", "addr:postcode": "22763", "addr:street": "Gro\u00dfe Brunnenstra\u00dfe", "amenity": "restaurant", "cuisine": "italian", "name": "Arturo", "opening_hours": "We-Mo 17:00+", "phone": "+49 40 46008891", "website": "http://www.arturo1919.de"}}, {"type": "node", "id": 3148220802, "lat": 53.5544075, "lon": 9.9288154, "tags": {"addr:city": "Hamburg", "addr:country": "DE", "addr:housenumber": "172", "addr:postcode": "22765", "addr:street": "Bahrenfelder Stra\u00dfe", "amenity": "restaurant", "contact:phone": "+49 40 60785747", "contact:website": "https://www.restaurant-lorient.de/ottensen.html", "cuisine": "lebanese", "name": "L'orient", "opening_hours": "12:00-24:00"}}, {"type": "node", "id": 3267561311, "lat": 53.5446758, "lon": 9.9152103, "tags": {"addr:city": "Hamburg", "addr:country": "DE", "addr:housenumber": "50", "addr:postcode": "22763", "addr:street": "Neum\u00fchlen", "amenity": "restaurant", "check_date": "2020-12-14", "contact:phone": "+49 40 3909016", "contact:website": "https://www.das-weisse-haus.de/", "name": "Das weisse Haus", "opening_hours": "18:00-23:00"}}, {"type": "node", "id": 3267580879, "lat": 53.5446861, "lon": 9.9148128, "tags": {"addr:city": "Hamburg", "addr:housenumber": "53", "addr:postcode": "22763", "addr:street": "Neum\u00fchlen", "amenity": "restaurant", "name": "\u00f6velg\u00f6nner f\u00e4hrhaus", "opening_hours": "Mo - Sa 11:00-23:00;Su closed", "toilets:wheelchair": "yes", "wheelchair": "yes"}}, {"type": "node", "id": 3280277161, "lat": 53.5565298, "lon": 9.9280386, "tags": {"amenity": "restaurant", "capacity": "30", "cuisine": "italian;pizza", "delivery": "no", "internet_access": "no", "name": "Pizza Al Taglio", "opening_hours": "Mo-Fr 12:00-23:30, Sa 17:00-23:30", "outdoor_seating": "yes", "phone": "+49 40 79692626", "smoking": "no", "takeaway": "yes", "wheelchair": "no"}}, {"type": "node", "id": 3497321056, "lat": 53.5572338, "lon": 9.9280239}, {"type": "node", "id": 3497321057, "lat": 53.5572398, "lon": 9.9278831}, {"type": "node", "id": 3523865993, "lat": 53.5514099, "lon": 9.9310617, "tags": {"addr:city": "Hamburg", "addr:country": "DE", "addr:housenumber": "11", "addr:postcode": "22765", "addr:street": "Spritzenplatz", "amenity": "restaurant", "contact:phone": "+49 40 30746556", "cuisine": "french", "email": "mail@petitamour-hh.com", "name": "Petit Amour", "website": "petitamour-hh.com", "wheelchair": "yes"}}, {"type": "node", "id": 3588227827, "lat": 53.5544577, "lon": 9.9284545, "tags": {"addr:city": "Hamburg", "addr:country": "DE", "addr:housenumber": "169", "addr:postcode": "22765", "addr:street": "Bahrenfelder Stra\u00dfe", "amenity": "restaurant", "cuisine": "sandwich", "name": "Carlos Coffee", "opening_hours": "Mo-Sa 06:30-20:00; Su 08:30-20:00", "wheelchair": "limited"}}, {"type": "node", "id": 3657153266, "lat": 53.555014, "lon": 9.9284294, "tags": {"addr:city": "Hamburg", "addr:country": "DE", "addr:housenumber": "185", "addr:postcode": "22765", "addr:street": "Bahrenfelder Stra\u00dfe", "amenity": "restaurant", "cuisine": "turkish", "name": "Nasip"}}, {"type": "node", "id": 3877293950, "lat": 53.557613, "lon": 9.9143793, "tags": {"addr:city": "Hamburg", "addr:housenumber": "85", "addr:postcode": "22763", "addr:street": "Gr\u00fcnebergstra\u00dfe", "amenity": "restaurant", "cuisine": "pizza", "delivery": "yes", "diet:vegetarian": "yes", "name": "Pizzaservice Mundfein", "opening_hours": "Mo-Th 11:00-22:00; Fr 11:00-23:00; Sa 12:00-23:00; PH,Su 12:00-22:00", "phone": "+49 40 53309686", "wheelchair": "yes"}}, {"type": "node", "id": 4007423407, "lat": 53.5594022, "lon": 9.9103067, "tags": {"amenity": "restaurant", "cuisine": "steak_house", "name": "Steak Club", "opening_hours": "Mo-Fr 11:30-15:00,17:30-22:00; Sa 14:00-23:00;Su 14:00-22:00", "wheelchair": "limited"}}, {"type": "node", "id": 4034103605, "lat": 53.5514792, "lon": 9.9346726}, {"type": "node", "id": 4034103606, "lat": 53.5514794, "lon": 9.9348745}, {"type": "node", "id": 4034103616, "lat": 53.5514952, "lon": 9.9348693}, {"type": "node", "id": 4034103617, "lat": 53.5514958, "lon": 9.9346677}, {"type": "node", "id": 4034103628, "lat": 53.5515236, "lon": 9.9346589}, {"type": "node", "id": 4034103629, "lat": 53.5515241, "lon": 9.9348601}, {"type": "node", "id": 4068560389, "lat": 53.5527378, "lon": 9.9300401, "tags": {"addr:city": "Hamburg", "addr:country": "DE", "addr:housenumber": "122", "addr:postcode": "22765", "addr:street": "Bahrenfelder Stra\u00dfe", "amenity": "restaurant", "contact:facebook": "https://www.facebook.com/Schamotte-Genusseria-170070746524098", "contact:phone": "+49 40 30391213", "cuisine": "pizza", "diet:vegetarian": "yes", "name": "Schamotte", "opening_hours": "Mo-Sa 12:00-23:00, Su 14:00-22:00"}}, {"type": "node", "id": 4278017904, "lat": 53.5555723, "lon": 9.9287072, "tags": {"addr:city": "Hamburg", "addr:country": "DE", "addr:housenumber": "212", "addr:postcode": "22765", "addr:street": "Bahrenfelder Stra\u00dfe", "amenity": "restaurant", "contact:phone": "+49 40 30603060", "contact:website": "https://www.lily-hamburg.de", "diet:vegan": "yes", "diet:vegetarian": "yes", "name": "Lily of the Valley", "opening_hours": "Mo-Fr 12:00-16:00; Sa-Su 10:00-17:00"}}, {"type": "node", "id": 4449706872, "lat": 53.5527804, "lon": 9.9300334, "tags": {"amenity": "restaurant", "name": "Schwester S"}}, {"type": "node", "id": 4767132321, "lat": 53.5543267, "lon": 9.9314072, "tags": {"addr:city": "Hamburg", "addr:housenumber": "55", "addr:postcode": "22765", "addr:street": "Hohenesch", "amenity": "restaurant", "capacity": "30", "cuisine": "sardinian", "delivery": "no", "name": "Anna Bistro", "outdoor_seating": "yes", "smoking": "no", "takeaway": "yes"}}, {"type": "node", "id": 4774925623, "lat": 53.550152, "lon": 9.925467, "tags": {"addr:housenumber": "18", "addr:street": "Keplerstra\u00dfe", "amenity": "restaurant", "name": "Teufels K\u00fcche", "opening_hours": "Mo-Fr 12:00-21:30; Sa 13:00-22:00; Su 17:00-22:00", "phone": "+49 40 39804787", "website": "https://www.teufelskueche-hamburg.de/", "wheelchair": "no"}}, {"type": "node", "id": 4838352440, "lat": 53.5562979, "lon": 9.9326561, "tags": {"addr:city": "Hamburg", "addr:country": "DE", "addr:housenumber": "32-34", "addr:postcode": "22765", "addr:street": "Nernstweg", "amenity": "restaurant", "check_date": "2020-07-05", "contact:phone": "+49 176 23753938", "contact:website": "https://lechedetigre.de/", "cuisine": "peruvian", "name": "Leche de Tigre", "opening_hours": "We-Th 17:00-22:00; Fr-Sa 17:00-23:00; Su 17:00-22:00", "wheelchair": "yes"}}, {"type": "node", "id": 4990118152, "lat": 53.5549135, "lon": 9.9271726, "tags": {"addr:city": "Hamburg", "addr:housenumber": "28", "addr:postcode": "22765", "addr:street": "Friedensallee", "amenity": "restaurant", "capacity": "20", "cuisine": "soup", "name": "Souperia Ottensen", "opening_hours": "Mo-Fr 11:00-20:00, Sa 12:00-17:00", "outdoor_seating": "no", "takeaway": "yes", "website": "http://souperia.de"}}, {"type": "node", "id": 5208050735, "lat": 53.5565352, "lon": 9.9284834, "tags": {"addr:city": "Hamburg", "addr:housenumber": "242", "addr:postcode": "22765", "addr:street": "Bahrenfelder Stra\u00dfe", "amenity": "restaurant", "cuisine": "italian", "name": "Il Vagabondo", "opening_hours": "Mo-Fr 12:00-15:00, Su 12:00-24:00; Sa 15:00-24:00", "website": "https://www.ilvagabondo.de"}}, {"type": "node", "id": 5554916621, "lat": 53.5525909, "lon": 9.9308492, "tags": {"addr:city": "Hamburg", "addr:country": "DE", "addr:housenumber": "20", "addr:postcode": "22765", "addr:street": "Gro\u00dfe Rainstra\u00dfe", "alt_name": "Takumi Ramen", "amenity": "restaurant", "cuisine": "japanese;noodle", "diet:vegan": "yes", "diet:vegetarian": "yes", "name": "Takumi Ramen-Station Hamburg", "opening_hours": "Su-We 12:00-21:00; Th-Sa 12:00-22:00", "phone": "+49 40 39893437", "source": "survey", "website": "http://www.takumi-hamburg.com/", "wheelchair": "no"}}, {"type": "node", "id": 5694869521, "lat": 53.553877, "lon": 9.9293, "tags": {"amenity": "restaurant", "name": "Il Garage", "toilets": "no", "wheelchair": "limited"}}, {"type": "node", "id": 5743590576, "lat": 53.5502807, "lon": 9.9300586, "tags": {"addr:city": "Hamburg", "addr:country": "DE", "addr:housenumber": "53", "addr:postcode": "22765", "addr:street": "Bahrenfelder Stra\u00dfe", "amenity": "restaurant", "contact:website": "https://teigfabrik.hamburg/", "cuisine": "italian", "name": "Teigfabrik Ottensen", "opening_hours": "Mo-Fr 17:00-23:00; Sa-Su 17:00-23:00"}}, {"type": "node", "id": 5853676599, "lat": 53.5593479, "lon": 9.9280711, "tags": {"addr:city": "Hamburg", "addr:country": "DE", "addr:housenumber": "332", "addr:postcode": "22765", "addr:street": "Bahrenfelder Stra\u00dfe", "alt_name": "Ottensener Foodkitchen", "amenity": "restaurant", "contact:facebook": "ottensenerfoodkitchen", "contact:instagram": "ottensener.foodkitchen", "contact:phone": "+49 40 39898765", "contact:website": "https://www.ottensener-foodkitchen.de/", "cuisine": "burger", "name": "Ottensener", "old_name": "Roots", "opening_hours": "Mo-Th 12:00-22:00; Fr 12:00-23:00; PH,Sa,Su 16:00-23:00"}}, {"type": "node", "id": 5974613416, "lat": 53.550739, "lon": 9.9326145, "tags": {"addr:city": "Hamburg", "addr:housenumber": "14", "addr:postcode": "22765", "addr:street": "Erzbergerstra\u00dfe", "amenity": "restaurant", "contact:facebook": "https://www.facebook.com/lacremedelacrepe.de/", "contact:phone": "+49 40 18071896", "name": "La Cr\u00e8me de la Cr\u00eape", "opening_hours": "Tu-Fr 12:00-14:30,18:00-22:00;Sa 12:00-22:00", "outdoor_seating": "yes", "smoking": "outside", "wheelchair": "limited"}}, {"type": "node", "id": 6005737885, "lat": 53.5548805, "lon": 9.9277091, "tags": {"addr:housenumber": "20", "addr:street": "Friedensallee", "amenity": "restaurant", "cuisine": "pizza", "diet:vegan": "yes", "diet:vegetarian": "yes", "name": "Zweipunktnull", "opening_hours": "Mo-Fr 12:00-15:00, 17:00-22:00, Sa,Su 16:00-22:00", "phone": "+494034967466", "website": "https://www.pizzazweipunktnull.de/"}}, {"type": "node", "id": 6010748620, "lat": 53.552732, "lon": 9.932153, "tags": {"addr:city": "Hamburg", "addr:country": "DE", "addr:housename": "Mercado", "addr:housenumber": "10", "addr:postcode": "22765", "addr:street": "Ottenser Hauptstra\u00dfe", "amenity": "restaurant", "cuisine": "regional", "level": "1", "name": "Fisherman", "wheelchair": "yes"}}, {"type": "node", "id": 6036536817, "lat": 53.5508307, "lon": 9.9299926, "tags": {"amenity": "restaurant", "cuisine": "japanese;sushi", "name": "gin koi", "wheelchair": "yes"}}, {"type": "node", "id": 6112600923, "lat": 53.551167, "lon": 9.9302849, "tags": {"addr:city": "Hamburg", "addr:housenumber": "98", "addr:postcode": "22765", "addr:street": "Bahrenfelder Stra\u00dfe", "amenity": "restaurant", "capacity": "50", "cuisine": "italian_pizza", "name": "Pizzeria K\u00f6nig", "opening_hours": "17:00+", "outdoor_seating": "yes", "phone": "+49 40 41358877", "smoking": "outside", "website": "http://diepizzeriakoenig.de/", "wheelchair": "no"}}, {"type": "node", "id": 6131339763, "lat": 53.5546997, "lon": 9.9291287, "tags": {"addr:city": "Hamburg", "addr:housenumber": "1", "addr:postcode": "22765", "addr:street": "Hohenesch", "amenity": "restaurant", "cuisine": "sushi", "delivery": "yes", "name": "Yoko Sushi Altona", "opening_hours": "11:00-22:30", "payment:cash": "yes", "payment:girocard": "yes", "phone": "+49 40 36025020", "takeaway": "yes", "website": "http://unser-altona.de/yoko-sushi-altona/"}}, {"type": "node", "id": 6501863798, "lat": 53.5554212, "lon": 9.9336929, "tags": {"addr:city": "Hamburg", "addr:country": "DE", "addr:housenumber": "10", "addr:postcode": "22765", "addr:street": "Gau\u00dfstra\u00dfe", "amenity": "restaurant", "cuisine": "balkan", "name": "Sharri Bistro", "opening_hours": "Mo-Su 08:00-23:00", "outdoor_seating": "yes", "phone": "+49 40 46008154", "wheelchair": "no"}}, {"type": "node", "id": 7255021085, "lat": 53.5439155, "lon": 9.9209701, "tags": {"amenity": "restaurant", "name": "Tafelhaus"}}, {"type": "node", "id": 7710117677, "lat": 53.5512995, "lon": 9.9306955, "tags": {"addr:city": "Hamburg", "addr:housenumber": "4", "addr:postcode": "22765", "addr:street": "Spritzenplatz", "amenity": "restaurant", "email": "info@restaurant-marta.de", "name": "marta", "opening_hours": "We-Sa 18:00-22:00, Su 11:00-16:00", "phone": "+49 40 35621 400", "website": "https://www.restaurant-marta.de/", "wheelchair": "no"}}, {"type": "node", "id": 7845989844, "lat": 53.5469313, "lon": 9.9318077, "tags": {"addr:city": "Hamburg", "addr:country": "DE", "addr:housenumber": "3", "addr:postcode": "22765", "addr:street": "Klopstockplatz", "amenity": "restaurant", "cuisine": "asian", "name": "Ja An", "outdoor_seating": "yes", "phone": "+49 40 52901973", "website": "http://jaan-hamburg.de/"}}, {"type": "node", "id": 8002351385, "lat": 53.5585158, "lon": 9.9209862, "tags": {"amenity": "restaurant", "name": "why not Caf\u00e9", "opening_hours": "Tu-Su 10:00-18:00", "website": "http://why-not-integration.org/#cafe"}}, {"type": "node", "id": 9349268560, "lat": 53.554675, "lon": 9.9284361, "tags": {"addr:city": "Hamburg", "addr:housenumber": "177", "addr:postcode": "22765", "addr:street": "Bahrenfelder Stra\u00dfe", "amenity": "restaurant", "cuisine": "pizza;italian", "name": "L'Antica Pizzaria da Michele", "opening_hours": "Tu-Su 17:00-23:00", "website": "http://www.micheleintheworld.com/hamburg/"}}, {"type": "way", "id": 169638088, "nodes": [1808083639, 1808083520, 1808083445, 1808083470, 1808083499, 2063956917, 2063956922, 2063956928, 1808083639], "tags": {"addr:city": "Hamburg", "addr:housenumber": "245", "addr:postcode": "22763", "addr:street": "Friedensallee", "amenity": "restaurant", "building": "apartments", "building:levels": "5", "cuisine": "greek", "diet:vegetarian": "yes", "name": "Nepheli", "outdoor_seating": "yes", "phone": "+49 40 8810201", "roof:levels": "1", "smoking": "isolated", "wheelchair": "limited"}}, {"type": "way", "id": 233418837, "nodes": [3497321057, 2418110756, 2418110755, 250354898, 3497321056, 3497321057], "tags": {"addr:city": "Hamburg", "addr:country": "DE", "addr:housenumber": "241", "addr:postcode": "22765", "addr:street": "Bahrenfelder Stra\u00dfe", "amenity": "restaurant", "building": "apartments", "building:levels": "3", "cuisine": "indian", "diet:vegan": "yes", "diet:vegetarian": "yes", "name": "Shikara", "opening_hours": "Mo-Su 12:00-23:30", "phone": "+49 40 39906696", "roof:levels": "1", "roof:shape": "gabled", "wheelchair": "no"}}, {"type": "way", "id": 342776101, "nodes": [3497321056, 2418110757, 2418110758, 3497321057, 3497321056], "tags": {"addr:city": "Hamburg", "addr:country": "DE", "addr:housenumber": "243", "addr:postcode": "22765", "addr:street": "Bahrenfelder Stra\u00dfe", "amenity": "restaurant", "building": "apartments", "building:levels": "3", "cuisine": "indian", "diet:vegetarian": "yes", "name": "Shikara QUICK", "opening_hours": "Mo-Su 12:00-23:30", "phone": "+49 40 39906696", "roof:levels": "1", "roof:shape": "gabled", "wheelchair": "no"}}, {"type": "way", "id": 400912911, "nodes": [4034103605, 4034103617, 4034103628, 4034103629, 4034103616, 4034103606, 4034103605], "tags": {"amenity": "restaurant", "brand": "dean&david", "brand:wikidata": "Q66132404", "cuisine": "salad;sandwich", "diet:vegan": "yes", "diet:vegetarian": "yes", "indoor": "room", "level": "-1", "name": "dean&david", "payment:cash": "yes", "payment:girocard": "yes", "payment:maestro": "yes", "payment:mastercard": "yes", "room": "shop", "smoking": "no", "takeaway": "yes", "wheelchair": "yes"}}]}